ORBCOMM FM33            
1 25983U 99065D   24346.58396790  .00002129  00000+0  72826-3 0  9993
2 25983  45.0263 170.3123 0009242 193.8305 166.2291 14.39035368309104
ORBCOMM FM36            
1 25984U 99065E   24346.16252315  .00002711  00000+0  95056-3 0  9999
2 25984  45.0387 261.3472 0003642  58.7139 301.4066 14.37154717307369
ORBCOMM FM35            
1 25985U 99065F   24346.50310299  .00001870  00000+0  68184-3 0  9991
2 25985  45.0390 263.3793 0002352 180.1514 179.9334 14.36314300307794
ORBCOMM FM34            
1 25986U 99065G   24346.47420376  .00002063  00000+0  74665-3 0  9992
2 25986  45.0387 264.0491 0003026 106.1128 254.0054 14.36347951307907
ORBCOMM FM38            
1 33060U 08031A   24346.54166665  .00004446  00000+0  61172-3 0  9999
2 33060  48.4385 128.5560 0005987 301.5475  58.4855 14.79787111886943
ORBCOMM FM41            
1 33061U 08031B   24346.50926800  .00003908  00000+0  54579-3 0  9996
2 33061  48.4419 135.8802 0005288 286.9685 146.0302 14.79422902886434
ORBCOMM FM29            
1 33062U 08031C   24346.49596605  .00004353  00000+0  60435-3 0  9994
2 33062  48.4370 143.9319 0006943 287.8874 112.9015 14.79448869886346
ORBCOMM FM39            
1 33063U 08031D   24346.61620915  .00003320  00000+0  48145-3 0  9998
2 33063  48.4382 165.6955 0007933 265.5717  94.4291 14.78191649886458
